NORAD_CAT_ID,OBJECT_NAME,OBJECT_TYPE,EPOCH,MEAN_MOTION,ECCENTRICITY,INCLINATION,RA_OF_ASC_NODE,ARG_OF_PERICENTER,MEAN_ANOMALY,BSTAR,MEAN_MOTION_DOT,MEAN_MOTION_DDOT,TLE_LINE0,TLE_LINE1,TLE_LINE2,SEMIMAJOR_AXIS,PERIOD,APOGEE,PERIGEE,DECAYED
52108.0,STARLINK-3698,PAYLOAD,2023-12-12 16:49:54,15.08834469,0.0001324,53.2162,151.2137,99.8526,260.2616,8.3183e-05,1.036e-05,0.0,0 STARLINK-3698,1 52108U 22029W   23346.70132925  .00001036  00000-0  83183-4 0  9995,2 52108  53.2162 151.2137 0001324  99.8526 260.2616 15.08834469 97294,6917.897,95.438,540.678,538.846,0.0
52108.0,STARLINK-3698,PAYLOAD,2023-12-13 18:16:04,15.08848177,0.0001235,53.216,146.4542,88.6573,271.4561,0.00010395,1.367e-05,0.0,0 STARLINK-3698,1 52108U 22029W   23347.76116031  .00001367  00000-0  10395-3 0  9993,2 52108  53.2160 146.4542 0001235  88.6573 271.4561 15.08848177 97459,6917.855,95.437,540.575,538.866,0.0
52108.0,STARLINK-3698,PAYLOAD,2023-12-14 18:06:51,15.08846144,0.0001322,53.2166,141.9953,77.1874,282.9266,2.5691e-05,1.21e-06,0.0,0 STARLINK-3698,1 52108U 22029W   23348.75476267  .00000121  00000-0  25691-4 0  9996,2 52108  53.2166 141.9953 0001322  77.1874 282.9266 15.08846144 97603,6917.862,95.437,540.641,538.812,0.0
52108.0,STARLINK-3698,PAYLOAD,2023-12-15 14:46:52,15.08839788,0.0001925,53.2179,138.1289,58.2605,301.8575,-4.1916e-05,-9.55e-06,0.0,0 STARLINK-3698,1 52108U 22029W   23349.61588962 -.00000955  00000-0 -41916-4 0  9993,2 52108  53.2179 138.1289 0001925  58.2605 301.8575 15.08839788 97732,6917.881,95.438,541.078,538.414,0.0
52108.0,STARLINK-3698,PAYLOAD,2023-12-15 16:22:15,15.08840227,0.0001928,53.2177,137.8318,58.2027,301.9152,-3.8029e-05,-8.93e-06,0.0,0 STARLINK-3698,1 52108U 22029W   23349.68212916 -.00000893  00000-0 -38029-4 0  9995,2 52108  53.2177 137.8318 0001928  58.2027 301.9152 15.08840227 97743,6917.88,95.438,541.078,538.411,0.0
52108.0,STARLINK-3698,PAYLOAD,2023-12-16 14:37:39,15.08841108,0.0001452,53.2165,133.6745,75.9853,284.1301,4.6056e-05,4.45e-06,0.0,0 STARLINK-3698,1 52108U 22029W   23350.60948388  .00000445  00000-0  46056-4 0  9998,2 52108  53.2165 133.6745 0001452  75.9853 284.1301 15.08841108 97885,6917.877,95.437,540.746,538.738,0.0
52108.0,STARLINK-3698,PAYLOAD,2023-12-16 16:13:02,15.08847448,0.0001375,53.2165,133.3728,81.0067,279.1081,6.5783e-06,-1.83e-06,0.0,0 STARLINK-3698,1 52108U 22029W   23350.67572083 -.00000183  00000-0  65783-5 0  9999,2 52108  53.2165 133.3728 0001375  81.0067 279.1081 15.08847448 97895,6917.858,95.437,540.674,538.771,0.0
52108.0,STARLINK-3698,PAYLOAD,2023-12-17 14:28:26,15.08836925,0.0001481,53.2173,129.2069,99.4464,260.6695,2.0103e-05,3.2e-07,0.0,0 STARLINK-3698,1 52108U 22029W   23351.60308666  .00000032  00000-0  20103-4 0  9995,2 52108  53.2173 129.2069 0001481  99.4464 260.6695 15.08836925 98039,6917.89,95.438,540.779,538.73,0.0
52108.0,STARLINK-3698,PAYLOAD,2023-12-17 16:03:49,15.08837971,0.0001464,53.217,128.9078,97.8639,262.252,2.8671e-05,1.68e-06,0.0,0 STARLINK-3698,1 52108U 22029W   23351.66932567  .00000168  00000-0  28671-4 0  9992,2 52108  53.2170 128.9078 0001464  97.8639 262.2520 15.08837971 98047,6917.887,95.438,540.764,538.739,0.0
52108.0,STARLINK-3698,PAYLOAD,2023-12-18 14:19:13,15.08844904,0.0001559,53.2175,124.7454,110.5123,249.6037,6.8107e-05,7.96e-06,0.0,0 STARLINK-3698,1 52108U 22029W   23352.59667878  .00000796  00000-0  68107-4 0  9990,2 52108  53.2175 124.7454 0001559 110.5123 249.6037 15.08844904 98181,6917.865,95.437,540.809,538.652,0.0
52108.0,STARLINK-3698,PAYLOAD,2023-12-18 15:54:36,15.08846552,0.0001527,53.2175,124.448,107.3903,252.7256,8.1446e-05,1.009e-05,0.0,0 STARLINK-3698,1 52108U 22029W   23352.66291733  .00001009  00000-0  81446-4 0  9990,2 52108  53.2175 124.4480 0001527 107.3903 252.7256 15.08846552 98192,6917.86,95.437,540.782,538.669,0.0
52108.0,STARLINK-3698,PAYLOAD,2023-12-19 14:10:00,15.08839161,0.0001448,53.2176,120.2847,111.0168,249.0979,1.6436e-05,-2.6e-07,0.0,0 STARLINK-3698,1 52108U 22029W   23353.59028420 -.00000026  00000-0  16436-4 0  9990,2 52108  53.2176 120.2847 0001448 111.0168 249.0979 15.08839161 98336,6917.883,95.438,540.75,538.746,0.0
52108.0,STARLINK-3698,PAYLOAD,2023-12-20 14:00:48,15.08838796,0.0001277,53.2171,115.8268,88.9434,271.1704,-7.1893e-05,-1.432e-05,0.0,0 STARLINK-3698,1 52108U 22029W   23354.58389194 -.00001432  00000-0 -71893-4 0  9999,2 52108  53.2171 115.8268 0001277  88.9434 271.1704 15.08838796 98487,6917.884,95.438,540.632,538.866,0.0
52108.0,STARLINK-3698,PAYLOAD,2023-12-20 15:36:11,15.08839617,0.0001331,53.2173,115.5296,64.95,295.1631,-2.7075e-05,-7.19e-06,0.0,0 STARLINK-3698,1 52108U 22029W   23354.65013101 -.00000719  00000-0 -27075-4 0  9999,2 52108  53.2173 115.5296 0001331  64.9500 295.1631 15.08839617 98495,6917.882,95.438,540.667,538.826,0.0
52108.0,STARLINK-3698,PAYLOAD,2023-12-21 12:16:12,15.08831933,0.0001593,53.2175,111.6646,51.6746,308.4389,2.8402e-05,1.64e-06,0.0,0 STARLINK-3698,1 52108U 22029W   23355.51125880  .00000164  00000-0  28402-4 0  9990,2 52108  53.2175 111.6646 0001593  51.6746 308.4389 15.08831933 98624,6917.905,95.438,540.872,538.668,0.0
52108.0,STARLINK-3698,PAYLOAD,2023-12-21 13:51:35,15.08836336,0.0001907,53.2177,111.365,46.7405,313.3746,1.5087e-05,-4.8e-07,0.0,0 STARLINK-3698,1 52108U 22029W   23355.57749804 -.00000048  00000-0  15087-4 0  9991,2 52108  53.2177 111.3650 0001907  46.7405 313.3746 15.08836336 98639,6917.892,95.438,541.076,538.437,0.0
52108.0,STARLINK-3698,PAYLOAD,2023-12-21 15:26:58,15.08838819,0.000177,53.2187,111.0675,57.1567,302.9595,2.8783e-05,1.7e-06,0.0,0 STARLINK-3698,1 52108U 22029W   23355.64373457  .00000170  00000-0  28783-4 0  9998,2 52108  53.2187 111.0675 0001770  57.1567 302.9595 15.08838819 98642,6917.884,95.438,540.973,538.525,0.0
52108.0,STARLINK-3698,PAYLOAD,2023-12-22 13:42:23,15.08839353,0.000194,53.2184,106.904,55.5434,304.5741,3.1262e-05,2.09e-06,0.0,0 STARLINK-3698,1 52108U 22029W   23356.57110056  .00000209  00000-0  31262-4 0  9994,2 52108  53.2184 106.9040 0001940  55.5434 304.5741 15.08839353 98782,6917.882,95.438,541.089,538.405,0.0
52108.0,STARLINK-3698,PAYLOAD,2023-12-22 15:17:45,15.08840729,0.0002036,53.2186,106.6042,55.6169,304.5016,9.9182e-05,1.291e-05,0.0,0 STARLINK-3698,1 52108U 22029W   23356.63733744  .00001291  00000-0  99182-4 0  9993,2 52108  53.2186 106.6042 0002036  55.6169 304.5016 15.08840729 98791,6917.878,95.438,541.152,538.335,0.0
52108.0,STARLINK-3698,PAYLOAD,2023-12-23 11:57:46,15.08844635,0.0001537,53.2169,102.7457,79.1345,280.982,4.3353e-05,4.02e-06,0.0,0 STARLINK-3698,1 52108U 22029W   23357.49845652  .00000402  00000-0  43353-4 0  9992,2 52108  53.2169 102.7457 0001537  79.1345 280.9820 15.08844635 98926,6917.866,95.437,540.794,538.668,0.0
52108.0,STARLINK-3698,PAYLOAD,2023-12-23 13:33:09,15.08845737,0.0001638,53.2169,102.4485,73.6828,286.4344,5.2206e-05,5.43e-06,0.0,0 STARLINK-3698,1 52108U 22029W   23357.56469517  .00000543  00000-0  52206-4 0  9995,2 52108  53.2169 102.4485 0001638  73.6828 286.4344 15.08845737 98938,6917.863,95.437,540.861,538.595,0.0
52108.0,STARLINK-3698,PAYLOAD,2023-12-24 13:23:56,15.08852499,0.0001495,53.2176,97.9857,106.0901,254.0255,4.3054e-05,3.97e-06,0.0,0 STARLINK-3698,1 52108U 22029W   23358.55828746  .00000397  00000-0  43054-4 0  9996,2 52108  53.2176  97.9857 0001495 106.0901 254.0255 15.08852499 99083,6917.842,95.437,540.741,538.673,0.0
52108.0,STARLINK-3698,PAYLOAD,2023-12-25 11:39:20,15.0884151,0.0001659,53.2186,93.8239,104.9021,255.2155,-1.5098e-05,-5.28e-06,0.0,0 STARLINK-3698,1 52108U 22029W   23359.48565401 -.00000528  00000-0 -15098-4 0  9990,2 52108  53.2186  93.8239 0001659 104.9021 255.2155 15.08841510 99225,6917.876,95.437,540.888,538.593,0.0
52108.0,STARLINK-3698,PAYLOAD,2023-12-25 13:14:43,15.08842569,0.0001667,53.2183,93.5256,101.8805,258.2375,-2.0787e-05,-6.19e-06,0.0,0 STARLINK-3698,1 52108U 22029W   23359.55189343 -.00000619  00000-0 -20787-4 0  9997,2 52108  53.2183  93.5256 0001667 101.8805 258.2375 15.08842569 99236,6917.873,95.437,540.891,538.584,0.0
52108.0,STARLINK-3698,PAYLOAD,2023-12-26 11:30:10,15.08811016,0.0001579,53.2172,89.3589,101.4504,258.6666,-0.0002959,-4.99e-05,0.0,0 STARLINK-3698,1 52108U 22029W   23360.47928381 -.00004990  00000-0 -29590-3 0  9999,2 52108  53.2172  89.3589 0001579 101.4504 258.6666 15.08811016 99375,6917.969,95.439,540.926,538.742,0.0
52108.0,STARLINK-3698,PAYLOAD,2023-12-26 13:05:33,15.08811228,0.000146,53.2171,89.0612,89.792,270.3239,-0.0002901,-4.898e-05,0.0,0 STARLINK-3698,1 52108U 22029W   23360.54552495 -.00004898  00000-0 -29010-3 0  9990,2 52108  53.2171  89.0612 0001460  89.7920 270.3239 15.08811228 99380,6917.968,95.439,540.843,538.823,0.0
52108.0,STARLINK-3698,PAYLOAD,2023-12-27 11:20:55,15.08845875,0.0001663,53.217,84.8988,99.3046,260.8134,0.00013655,1.886e-05,0.0,0 STARLINK-3698,1 52108U 22029W   23361.47285955  .00001886  00000-0  13655-3 0  9997,2 52108  53.2170  84.8988 0001663  99.3046 260.8134 15.08845875 99528,6917.862,95.437,540.878,538.577,0.0
52108.0,STARLINK-3698,PAYLOAD,2023-12-28 14:22:28,15.08839115,0.0001552,53.2167,79.8427,73.8429,286.2734,0.00041305,6.292e-05,0.0,0 STARLINK-3698,1 52108U 22029W   23362.59893658  .00006292  00000-0  41305-3 0  9995,2 52108  53.2167  79.8427 0001552  73.8429 286.2734 15.08839115 99691,6917.883,95.438,540.822,538.674,0.0
52108.0,STARLINK-3698,PAYLOAD,2023-12-29 11:02:29,15.0884736,0.0001686,53.2166,75.9786,85.9952,274.1232,-3.9911e-05,-9.23e-06,0.0,0 STARLINK-3698,1 52108U 22029W   23363.46006559 -.00000923  00000-0 -39911-4 0  9996,2 52108  53.2166  75.9786 0001686  85.9952 274.1232 15.08847360 99823,6917.858,95.437,540.889,538.557,0.0
52108.0,STARLINK-3698,PAYLOAD,2023-12-29 12:37:52,15.0884865,0.0001737,53.217,75.6823,83.7802,276.3388,-2.7563e-05,-7.27e-06,0.0,0 STARLINK-3698,1 52108U 22029W   23363.52630422 -.00000727  00000-0 -27563-4 0  9997,2 52108  53.2170  75.6823 0001737  83.7802 276.3388 15.08848650 99834,6917.854,95.437,540.921,538.517,0.0
